{"type": "FeatureCollection", "features": [ {"type": "Feature", "properties": {"norad_id": 66469, "name": "STARLINK-35451", "group": "last-30-days", "lat": -21.14482068869896, "lon": -52.226846634269364, "alt_km": 417.068169885305, "timestamp": "2025-12-07T05:38:08.684010+00:00", "meta": {"OBJECT_NAME": "STARLINK-35451", "OBJECT_ID": "2025-262P", "EPOCH": "2025-12-06T14:00:01.999872", "MEAN_MOTION": 15.50692381, "ECCENTRICITY": 0.00010984, "INCLINATION": 43.0006, "RA_OF_ASC_NODE": 107.0624, "ARG_OF_PERICENTER": 266.3329, "MEAN_ANOMALY": 264.6744, "EPHEMERIS_TYPE": 0, "CLASSIFICATION_TYPE": "U", "NORAD_CAT_ID": 66469, "ELEMENT_SET_NO": 999, "REV_AT_EPOCH": 464, "BSTAR": -0.0032293439, "MEAN_MOTION_DOT": -0.00186103, "MEAN_MOTION_DDOT": 0}, "tle": {"line1": "1 66469U 25262P   25340.58335648 -.00186103  00000+0 -32293-2 0  9995", "line2": "2 66469  43.0006 107.0624 0001098 266.3329 264.6744 15.50692381  4642"}}, "geometry": {"type": "Point", "coordinates": [-52.226846634269364, -21.14482068869896]}}, {"type": "Feature", "properties": {"norad_id": 66470, "name": "STARLINK-35655", "group": "last-30-days", "lat": -18.69715871076006, "lon": -55.44310394225966, "alt_km": 417.5078633048015, "timestamp": "2025-12-07T05:38:08.684022+00:00", "meta": {"OBJECT_NAME": "STARLINK-35655", "OBJECT_ID": "2025-262Q", "EPOCH": "2025-12-06T14:00:01.999872", "MEAN_MOTION": 15.50735811, "ECCENTRICITY": 0.00015908, "INCLINATION": 43.0006, "RA_OF_ASC_NODE": 107.0729, "ARG_OF_PERICENTER": 279.2543, "MEAN_ANOMALY": 248.0227, "EPHEMERIS_TYPE": 0, "CLASSIFICATION_TYPE": "U", "NORAD_CAT_ID": 66470, "ELEMENT_SET_NO": 999, "REV_AT_EPOCH": 464, "BSTAR": -0.0061836672, "MEAN_MOTION_DOT": -0.00349352, "MEAN_MOTION_DDOT": 0}, "tle": {"line1": "1 66470U 25262Q   25340.58335648 -.00349352  00000+0 -61837-2 0  9990", "line2": "2 66470  43.0006 107.0729 0001590 279.2543 248.0227 15.50735811  4646"}}, "geometry": {"type": "Point", "coordinates": [-55.44310394225966, -18.69715871076006]}}, {"type": "Feature", "properties": {"norad_id": 66471, "name": "STARLINK-35569", "group": "last-30-days", "lat": -19.93357707669351, "lon": -53.84025772962294, "alt_km": 417.08223051214645, "timestamp": "2025-12-07T05:38:08.684033+00:00", "meta": {"OBJECT_NAME": "STARLINK-35569", "OBJECT_ID": "2025-262R", "EPOCH": "2025-12-06T14:00:01.999872", "MEAN_MOTION": 15.50636933, "ECCENTRICITY": 0.00010684, "INCLINATION": 43.0005, "RA_OF_ASC_NODE": 107.0678, "ARG_OF_PERICENTER": 270.4212, "MEAN_ANOMALY": 258.7227, "EPHEMERIS_TYPE": 0, "CLASSIFICATION_TYPE": "U", "NORAD_CAT_ID": 66471, "ELEMENT_SET_NO": 999, "REV_AT_EPOCH": 464, "BSTAR": -0.0026529673, "MEAN_MOTION_DOT": -0.00153281, "MEAN_MOTION_DDOT": 0}, "tle": {"line1": "1 66471U 25262R   25340.58335648 -.00153281  00000+0 -26530-2 0  9996", "line2": "2 66471  43.0005 107.0678 0001068 270.4212 258.7227 15.50636933  4648"}}, "geometry": {"type": "Point", "coordinates": [-53.84025772962294, -19.93357707669351]}}, {"type": "Feature", "properties": {"norad_id": 66472, "name": "STARLINK-35567", "group": "last-30-days", "lat": -22.313031111197965, "lon": -50.62332490174439, "alt_km": 417.146261939487, "timestamp": "2025-12-07T05:38:08.684043+00:00", "meta": {"OBJECT_NAME": "STARLINK-35567", "OBJECT_ID": "2025-262S", "EPOCH": "2025-12-06T14:00:01.999872", "MEAN_MOTION": 15.50620655, "ECCENTRICITY": 0.00012014, "INCLINATION": 43.0005, "RA_OF_ASC_NODE": 107.0583, "ARG_OF_PERICENTER": 270.0365, "MEAN_ANOMALY": 262.9488, "EPHEMERIS_TYPE": 0, "CLASSIFICATION_TYPE": "U", "NORAD_CAT_ID": 66472, "ELEMENT_SET_NO": 999, "REV_AT_EPOCH": 464, "BSTAR": -0.002242162, "MEAN_MOTION_DOT": -0.00129909, "MEAN_MOTION_DDOT": 0}, "tle": {"line1": "1 66472U 25262S   25340.58335648 -.00129909  00000+0 -22422-2 0  9993", "line2": "2 66472  43.0005 107.0583 0001201 270.0365 262.9488 15.50620655  4648"}}, "geometry": {"type": "Point", "coordinates": [-50.62332490174439, -22.313031111197965]}}, {"type": "Feature", "properties": {"norad_id": 66473, "name": "STARLINK-35568", "group": "last-30-days", "lat": -23.473189730920463, "lon": -48.98242929383737, "alt_km": 417.2823504773114, "timestamp": "2025-12-07T05:38:08.684055+00:00", "meta": {"OBJECT_NAME": "STARLINK-35568", "OBJECT_ID": "2025-262T", "EPOCH": "2025-12-06T14:00:01.999872", "MEAN_MOTION": 15.50628037, "ECCENTRICITY": 0.00013853, "INCLINATION": 43.0005, "RA_OF_ASC_NODE": 107.0533, "ARG_OF_PERICENTER": 276.8898, "MEAN_ANOMALY": 258.0124, "EPHEMERIS_TYPE": 0, "CLASSIFICATION_TYPE": "U", "NORAD_CAT_ID": 66473, "ELEMENT_SET_NO": 999, "REV_AT_EPOCH": 464, "BSTAR": -0.0024763781, "MEAN_MOTION_DOT": -0.00143242, "MEAN_MOTION_DDOT": 0}, "tle": {"line1": "1 66473U 25262T   25340.58335648 -.00143242  00000+0 -24764-2 0  9991", "line2": "2 66473  43.0005 107.0533 0001385 276.8898 258.0124 15.50628037  4647"}}, "geometry": {"type": "Point", "coordinates": [-48.98242929383737, -23.473189730920463]}}, {"type": "Feature", "properties": {"norad_id": 66474, "name": "STARLINK-35620", "group": "last-30-days", "lat": -24.6721488312888, "lon": -47.229947120055876, "alt_km": 416.8410271705934, "timestamp": "2025-12-07T05:38:08.684065+00:00", "meta": {"OBJECT_NAME": "STARLINK-35620", "OBJECT_ID": "2025-262U", "EPOCH": "2025-12-06T14:00:01.999872", "MEAN_MOTION": 15.50593737, "ECCENTRICITY": 0.00013261, "INCLINATION": 43.0005, "RA_OF_ASC_NODE": 107.0472, "ARG_OF_PERICENTER": 276.5334, "MEAN_ANOMALY": 260.2008, "EPHEMERIS_TYPE": 0, "CLASSIFICATION_TYPE": "U", "NORAD_CAT_ID": 66474, "ELEMENT_SET_NO": 999, "REV_AT_EPOCH": 464, "BSTAR": 0.00034378926, "MEAN_MOTION_DOT": 0.00019888, "MEAN_MOTION_DDOT": 0}, "tle": {"line1": "1 66474U 25262U   25340.58335648  .00019888  00000+0  34379-3 0  9992", "line2": "2 66474  43.0005 107.0472 0001326 276.5334 260.2008 15.50593737  4641"}}, "geometry": {"type": "Point", "coordinates": [-47.229947120055876, -24.6721488312888]}}, {"type": "Feature", "properties": {"norad_id": 66475, "name": "STARLINK-35538", "group": "last-30-days", "lat": -25.776088282841084, "lon": -45.555148854764376, "alt_km": 417.0408857436523, "timestamp": "2025-12-07T05:38:08.684075+00:00", "meta": {"OBJECT_NAME": "STARLINK-35538", "OBJECT_ID": "2025-262V", "EPOCH": "2025-12-06T14:00:01.999872", "MEAN_MOTION": 15.5059098, "ECCENTRICITY": 0.00014511, "INCLINATION": 43.0004, "RA_OF_ASC_NODE": 107.0436, "ARG_OF_PERICENTER": 269.092, "MEAN_ANOMALY": 269.645, "EPHEMERIS_TYPE": 0, "CLASSIFICATION_TYPE": "U", "NORAD_CAT_ID": 66475, "ELEMENT_SET_NO": 999, "REV_AT_EPOCH": 464, "BSTAR": -0.00096528521, "MEAN_MOTION_DOT": -0.00056586, "MEAN_MOTION_DDOT": 0}, "tle": {"line1": "1 66475U 25262V   25340.58335648 -.00056586  00000+0 -96529-3 0  9996", "line2": "2 66475  43.0004 107.0436 0001451 269.0920 269.6450 15.50590980  4649"}}, "geometry": {"type": "Point", "coordinates": [-45.555148854764376, -25.776088282841084]}}, {"type": "Feature", "properties": {"norad_id": 66476, "name": "STARLINK-35372", "group": "last-30-days", "lat": -26.857160310472526, "lon": -43.855885247308706, "alt_km": 417.3133590806883, "timestamp": "2025-12-07T05:38:08.684084+00:00", "meta": {"OBJECT_NAME": "STARLINK-35372", "OBJECT_ID": "2025-262W", "EPOCH": "2025-12-06T14:00:01.999872", "MEAN_MOTION": 15.50621308, "ECCENTRICITY": 0.00013649, "INCLINATION": 43.0005, "RA_OF_ASC_NODE": 107.0389, "ARG_OF_PERICENTER": 268.6717, "MEAN_ANOMALY": 271.9814, "EPHEMERIS_TYPE": 0, "CLASSIFICATION_TYPE": "U", "NORAD_CAT_ID": 66476, "ELEMENT_SET_NO": 999, "REV_AT_EPOCH": 454, "BSTAR": -0.002252147, "MEAN_MOTION_DOT": -0.00130482, "MEAN_MOTION_DDOT": 0}, "tle": {"line1": "1 66476U 25262W   25340.58335648 -.00130482  00000+0 -22521-2 0  9995", "line2": "2 66476  43.0005 107.0389 0001364 268.6717 271.9814 15.50621308  4548"}}, "geometry": {"type": "Point", "coordinates": [-43.855885247308706, -26.857160310472526]}}, {"type": "Feature", "properties": {"norad_id": 66477, "name": "STARLINK-35354", "group": "last-30-days", "lat": -29.00530787368646, "lon": -40.27261891472835, "alt_km": 417.54716828511846, "timestamp": "2025-12-07T05:38:08.684094+00:00", "meta": {"OBJECT_NAME": "STARLINK-35354", "OBJECT_ID": "2025-262X", "EPOCH": "2025-12-06T14:00:01.999872", "MEAN_MOTION": 15.50616737, "ECCENTRICITY": 0.00011796, "INCLINATION": 43.0005, "RA_OF_ASC_NODE": 107.0282, "ARG_OF_PERICENTER": 275.1573, "MEAN_ANOMALY": 269.3273, "EPHEMERIS_TYPE": 0, "CLASSIFICATION_TYPE": "U", "NORAD_CAT_ID": 66477, "ELEMENT_SET_NO": 999, "REV_AT_EPOCH": 464, "BSTAR": -0.0020828271, "MEAN_MOTION_DOT": -0.00120823, "MEAN_MOTION_DDOT": 0}, "tle": {"line1": "1 66477U 25262X   25340.58335648 -.00120823  00000+0 -20828-2 0  9992", "line2": "2 66477  43.0005 107.0282 0001179 275.1573 269.3273 15.50616737  4649"}}, "geometry": {"type": "Point", "coordinates": [-40.27261891472835, -29.00530787368646]}}, {"type": "Feature", "properties": {"norad_id": 66478, "name": "STARLINK-35283", "group": "last-30-days", "lat": -30.038130664830007, "lon": -38.43433811493983, "alt_km": 417.5213028479129, "timestamp": "2025-12-07T05:38:08.684104+00:00", "meta": {"OBJECT_NAME": "STARLINK-35283", "OBJECT_ID": "2025-262Y", "EPOCH": "2025-12-06T14:00:01.999872", "MEAN_MOTION": 15.50626952, "ECCENTRICITY": 0.0001316, "INCLINATION": 43.0006, "RA_OF_ASC_NODE": 107.0231, "ARG_OF_PERICENTER": 270.3113, "MEAN_ANOMALY": 276.0907, "EPHEMERIS_TYPE": 0, "CLASSIFICATION_TYPE": "U", "NORAD_CAT_ID": 66478, "ELEMENT_SET_NO": 999, "REV_AT_EPOCH": 464, "BSTAR": -0.0024326605, "MEAN_MOTION_DOT": -0.00140757, "MEAN_MOTION_DDOT": 0}, "tle": {"line1": "1 66478U 25262Y   25340.58335648 -.00140757  00000+0 -24327-2 0  9999", "line2": "2 66478  43.0006 107.0231 0001316 270.3113 276.0907 15.50626952  4644"}}, "geometry": {"type": "Point", "coordinates": [-38.43433811493983, -30.038130664830007]}}]}